0 COSMOS 2251 DEB
1 34797U 93036ABA 13281.22801921  .00001792  00000-0  84909-3 0  4808
2 34797 073.9839 236.1073 0112418 270.0172 088.8066 14.17080651237651
0 COSMOS 2251 DEB
1 34797U 93036ABA 13283.20468648  .00001616  00000-0  76717-3 0  4817
2 34797 073.9845 232.5790 0112194 265.9383 092.8788 14.17086135237932
0 COSMOS 2251 DEB
1 34797U 93036ABA 13286.52264616  .00001911  00000-0  90498-3 0  4836
2 34797 073.9838 226.6547 0111525 259.5497 099.3032 14.17100230238400
0 COSMOS 2251 DEB
1 34797U 93036ABA 13288.14631660  .00002117  00000-0  10010-2 0  4844
2 34797 073.9830 223.7532 0111659 256.6024 102.2728 14.17108655238636
0 COSMOS 2251 DEB
1 34797U 93036ABA 13289.48760180  .00002277  00000-0  10775-2 0  4858
2 34797 073.9843 221.3679 0110209 253.4103 105.4954 14.17115272238829
0 COSMOS 2251 DEB
1 34797U 93036ABA 13291.11124958  .00002589  00000-0  12210-2 0  4861
2 34797 073.9826 218.4593 0111572 251.2114 107.6945 14.17126790239051
0 COSMOS 2251 DEB
1 34797U 93036ABA 13292.17014630  .00002633  00000-0  12416-2 0  4872
2 34797 073.9827 216.5695 0111321 249.0735 109.8463 14.17132627239202
0 COSMOS 2251 DEB
1 34797U 93036ABA 13295.13503821  .00002475  00000-0  11671-2 0  4883
2 34797 073.9820 211.2660 0111807 243.1813 115.7792 14.17147062239626
